{
  "type": "FeatureCollection",
  "features": [
    {
      "type": "Feature",
      "properties": {
        "norad_id": 34003,
        "name": "COSMOS 2251 DEB",
        "group": "cosmos-2251-debris",
        "lat": 3.7420046265953526,
        "lon": -94.69741899729442,
        "alt_km": 751.8405286743518,
        "timestamp": "2025-12-25T03:55:56.760627+00:00",
        "meta_object_name": "COSMOS 2251 DEB",
        "meta_object_id": "1993-036GN",
        "meta_epoch": "2025-12-24T19:14:32.464896",
        "meta_mean_motion": 13.84214835,
        "meta_eccentricity": 0.0275329,
        "meta_inclination": 74.0775,
        "meta_ra_of_asc_node": 264.8421,
        "meta_arg_of_pericenter": 14.14,
        "meta_mean_anomaly": 346.7234,
        "meta_ephemeris_type": 0,
        "meta_classification_type": "U",
        "meta_norad_cat_id": 34003,
        "meta_element_set_no": 999,
        "meta_rev_at_epoch": 84592,
        "meta_bstar": 0.0018056,
        "meta_mean_motion_dot": 2.68e-05,
        "meta_mean_motion_ddot": 0,
        "tle_line1": "1 34003U 93036GN  25358.80176464  .00002680  00000+0  18056-2 0  9997",
        "tle_line2": "2 34003  74.0775 264.8421 0275329  14.1400 346.7234 13.84214835845923"
      },
      "geometry": {
        "type": "Point",
        "coordinates": [
          -94.69741899729442,
          3.7420046265953526
        ]
      }
    },
    {
      "type": "Feature",
      "properties": {
        "norad_id": 34004,
        "name": "COSMOS 2251 DEB",
        "group": "cosmos-2251-debris",
        "lat": 21.793345153884577,
        "lon": -63.61561133695922,
        "alt_km": 724.7189615230272,
        "timestamp": "2025-12-25T03:55:56.760637+00:00",
        "meta_object_name": "COSMOS 2251 DEB",
        "meta_object_id": "1993-036GP",
        "meta_epoch": "2025-12-24T19:32:38.042016",
        "meta_mean_motion": 14.49114391,
        "meta_eccentricity": 0.0033432,
        "meta_inclination": 74.0358,
        "meta_ra_of_asc_node": 290.4673,
        "meta_arg_of_pericenter": 301.1996,
        "meta_mean_anomaly": 58.5888,
        "meta_ephemeris_type": 0,
        "meta_classification_type": "U",
        "meta_norad_cat_id": 34004,
        "meta_element_set_no": 999,
        "meta_rev_at_epoch": 88205,
        "meta_bstar": 0.0012077,
        "meta_mean_motion_dot": 4.598e-05,
        "meta_mean_motion_ddot": 0,
        "tle_line1": "1 34004U 93036GP  25358.81432919  .00004598  00000+0  12077-2 0  9996",
        "tle_line2": "2 34004  74.0358 290.4673 0033432 301.1996  58.5888 14.49114391882057"
      },
      "geometry": {
        "type": "Point",
        "coordinates": [
          -63.61561133695922,
          21.793345153884577
        ]
      }
    },
    {
      "type": "Feature",
      "properties": {
        "norad_id": 34005,
        "name": "COSMOS 2251 DEB",
        "group": "cosmos-2251-debris",
        "lat": -73.19576642325107,
        "lon": 82.02676659819106,
        "alt_km": 753.181254446934,
        "timestamp": "2025-12-25T03:55:56.760648+00:00",
        "meta_object_name": "COSMOS 2251 DEB",
        "meta_object_id": "1993-036GQ",
        "meta_epoch": "2025-12-24T20:33:04.669056",
        "meta_mean_motion": 14.40312452,
        "meta_eccentricity": 0.0021211,
        "meta_inclination": 74.0433,
        "meta_ra_of_asc_node": 191.2609,
        "meta_arg_of_pericenter": 307.4464,
        "meta_mean_anomaly": 163.3683,
        "meta_ephemeris_type": 0,
        "meta_classification_type": "U",
        "meta_norad_cat_id": 34005,
        "meta_element_set_no": 999,
        "meta_rev_at_epoch": 88553,
        "meta_bstar": 9.7362e-05,
        "meta_mean_motion_dot": 2.83e-06,
        "meta_mean_motion_ddot": 0,
        "tle_line1": "1 34005U 93036GQ  25358.85630404  .00000283  00000+0  97362-4 0  9999",
        "tle_line2": "2 34005  74.0433 191.2609 0021211 307.4464 163.3683 14.40312452885533"
      },
      "geometry": {
        "type": "Point",
        "coordinates": [
          82.02676659819106,
          -73.19576642325107
        ]
      }
    },
    {
      "type": "Feature",
      "properties": {
        "norad_id": 34006,
        "name": "COSMOS 2251 DEB",
        "group": "cosmos-2251-debris",
        "lat": 70.50879303160866,
        "lon": -115.634085215944,
        "alt_km": 568.3692750384844,
        "timestamp": "2025-12-25T03:55:56.760658+00:00",
        "meta_object_name": "COSMOS 2251 DEB",
        "meta_object_id": "1993-036GR",
        "meta_epoch": "2025-12-24T18:25:22.381824",
        "meta_mean_motion": 14.95558807,
        "meta_eccentricity": 0.0011659,
        "meta_inclination": 74.0534,
        "meta_ra_of_asc_node": 119.05,
        "meta_arg_of_pericenter": 50.1684,
        "meta_mean_anomaly": 78.6177,
        "meta_ephemeris_type": 0,
        "meta_classification_type": "U",
        "meta_norad_cat_id": 34006,
        "meta_element_set_no": 999,
        "meta_rev_at_epoch": 88848,
        "meta_bstar": 0.0036016,
        "meta_mean_motion_dot": 0.00040203,
        "meta_mean_motion_ddot": 0,
        "tle_line1": "1 34006U 93036GR  25358.76762016  .00040203  00000+0  36016-2 0  9998",
        "tle_line2": "2 34006  74.0534 119.0500 0011659  50.1684  78.6177 14.95558807888484"
      },
      "geometry": {
        "type": "Point",
        "coordinates": [
          -115.634085215944,
          70.50879303160866
        ]
      }
    },
    {
      "type": "Feature",
      "properties": {
        "norad_id": 34007,
        "name": "COSMOS 2251 DEB",
        "group": "cosmos-2251-debris",
        "lat": 53.21558305043512,
        "lon": 120.44214378574755,
        "alt_km": 644.9579690136061,
        "timestamp": "2025-12-25T03:55:56.760668+00:00",
        "meta_object_name": "COSMOS 2251 DEB",
        "meta_object_id": "1993-036GS",
        "meta_epoch": "2025-12-24T14:15:41.953248",
        "meta_mean_motion": 14.64867128,
        "meta_eccentricity": 0.0044257,
        "meta_inclination": 74.0198,
        "meta_ra_of_asc_node": 324.0747,
        "meta_arg_of_pericenter": 95.1423,
        "meta_mean_anomaly": 265.4798,
        "meta_ephemeris_type": 0,
        "meta_classification_type": "U",
        "meta_norad_cat_id": 34007,
        "meta_element_set_no": 999,
        "meta_rev_at_epoch": 89253,
        "meta_bstar": 0.00077101,
        "meta_mean_motion_dot": 4.15e-05,
        "meta_mean_motion_ddot": 0,
        "tle_line1": "1 34007U 93036GS  25358.59423557  .00004150  00000+0  77101-3 0  9996",
        "tle_line2": "2 34007  74.0198 324.0747 0044257  95.1423 265.4798 14.64867128892533"
      },
      "geometry": {
        "type": "Point",
        "coordinates": [
          120.44214378574755,
          53.21558305043512
        ]
      }
    },
    {
      "type": "Feature",
      "properties": {
        "norad_id": 34008,
        "name": "COSMOS 2251 DEB",
        "group": "cosmos-2251-debris",
        "lat": -30.28470850347564,
        "lon": 137.43667734947897,
        "alt_km": 786.5953594681114,
        "timestamp": "2025-12-25T03:55:56.760678+00:00",
        "meta_object_name": "COSMOS 2251 DEB",
        "meta_object_id": "1993-036GT",
        "meta_epoch": "2025-12-24T03:36:17.043264",
        "meta_mean_motion": 14.33153747,
        "meta_eccentricity": 0.00246343,
        "meta_inclination": 74.0349,
        "meta_ra_of_asc_node": 309.6644,
        "meta_arg_of_pericenter": 303.087,
        "meta_mean_anomaly": 81.0266,
        "meta_ephemeris_type": 0,
        "meta_classification_type": "U",
        "meta_norad_cat_id": 34008,
        "meta_element_set_no": 999,
        "meta_rev_at_epoch": 88128,
        "meta_bstar": 0.00011874811,
        "meta_mean_motion_dot": 3.01e-06,
        "meta_mean_motion_ddot": 0,
        "tle_line1": "1 34008U 93036GT  25358.15019726  .00000301  00000+0  11875-3 0  9998",
        "tle_line2": "2 34008  74.0349 309.6644 0024634 303.0870  81.0266 14.33153747881284"
      },
      "geometry": {
        "type": "Point",
        "coordinates": [
          137.43667734947897,
          -30.28470850347564
        ]
      }
    },
    {
      "type": "Feature",
      "properties": {
        "norad_id": 34009,
        "name": "COSMOS 2251 DEB",
        "group": "cosmos-2251-debris",
        "lat": -65.36277133352154,
        "lon": 172.84649330827042,
        "alt_km": 800.0475415328347,
        "timestamp": "2025-12-25T03:55:56.760689+00:00",
        "meta_object_name": "COSMOS 2251 DEB",
        "meta_object_id": "1993-036GU",
        "meta_epoch": "2025-12-24T20:09:16.171200",
        "meta_mean_motion": 14.33231749,
        "meta_eccentricity": 0.0026986,
        "meta_inclination": 74.0377,
        "meta_ra_of_asc_node": 314.8236,
        "meta_arg_of_pericenter": 20.9929,
        "meta_mean_anomaly": 358.7276,
        "meta_ephemeris_type": 0,
        "meta_classification_type": "U",
        "meta_norad_cat_id": 34009,
        "meta_element_set_no": 999,
        "meta_rev_at_epoch": 88119,
        "meta_bstar": 0.00015106,
        "meta_mean_motion_dot": 3.91e-06,
        "meta_mean_motion_ddot": 0,
        "tle_line1": "1 34009U 93036GU  25358.83977050  .00000391  00000+0  15106-3 0  9997",
        "tle_line2": "2 34009  74.0377 314.8236 0026986  20.9929 358.7276 14.33231749881197"
      },
      "geometry": {
        "type": "Point",
        "coordinates": [
          172.84649330827042,
          -65.36277133352154
        ]
      }
    }
  ]
}